STARLINK-6260
1 56416U 23061AU  26090.58436745  .00000253  00000+0  33781-4 0  9998
2 56416  43.0034  52.8787 0001103 268.8052  91.2664 15.02534196160349
STARLINK-5356
1 56418U 23061AW  26090.90344152 -.00000370  00000+0 -12355-4 0  9992
2 56418  43.0055  50.9726 0001170 268.7749  91.2959 15.02531752160399
STARLINK-6272
1 56420U 23061AY  26090.36828450  .00000446  00000+0  48099-4 0  9999
2 56420  43.0045  53.8360 0001404 264.7755  95.2927 15.02533254160310
STARLINK-6270
1 56421U 23061AZ  26090.25531189 -.00000713  00000+0 -37737-4 0  9994
2 56421  43.0069  54.7111 0001199 279.5203  80.5504 15.02528463160295
STARLINK-6236
1 56422U 23061BA  26090.29514469  .00000293  00000+0  36783-4 0  9992
2 56422  43.0049  54.1502 0001232 263.2115  96.8588 15.02536567160300
STARLINK-6239
1 56423U 23061BB  26090.36496839  .00000186  00000+0  28866-4 0  9995
2 56423  43.0046  53.8104 0000580 249.4889 110.5891 15.02537140160311
STARLINK-6242
1 56424U 23061BC  26090.62088211 -.00000737  00000+0 -39492-4 0  9997
2 56424  43.0041  52.2913 0001110 268.4137  91.6579 15.02530976160351
STARLINK-6224
1 56425U 23061BD  26090.62421227 -.00000560  00000+0 -26398-4 0  9991
2 56425  43.0048  52.3175 0001084 269.4716  90.6002 15.02530075160354
STARLINK-5352
1 56426U 23061BE  26090.86692159 -.00000117  00000+0  63772-5 0  9997
2 56426  43.0042  51.5435 0001232 269.3091  90.7610 15.02537293160387
STARLINK-5724
1 56427U 23061BF  26090.59102308  .00000088  00000+0  21619-4 0  9999
2 56427  43.0054  52.9175 0001244 269.5546  90.5154 15.02537547160346
STARLINK-6238
1 56428U 23061BG  26090.61422080 -.00000350  00000+0 -10821-4 0  9992
2 56428  43.0044  52.2420 0000916 270.9929  89.0808 15.02531518160350
STARLINK-6264
1 56429U 23061BH  26090.61088288  .00001780  00000+0  14682-3 0  9995
2 56429  43.0057  52.2152 0001230 269.8626  90.2075 15.02540197160351
STARLINK-5333
1 56507U 23065E   26090.58212381  .00000597  00000+0  59241-4 0  9991
2 56507  43.0050  52.7149 0001409 279.5528  80.5155 15.02538649160360
STARLINK-30129
1 56689U 23067B   26090.48466508  .00000873  00000+0  79701-4 0  9995
2 56689  43.0016 156.4282 0001316 271.3484  88.7208 15.02539218158933
STARLINK-30124
1 56690U 23067C   26090.54782039  .00000952  00000+0  85570-4 0  9993
2 56690  43.0038 156.0526 0001439 268.9794  91.0883 15.02533145158948
STARLINK-30036
1 56692U 23067E   26090.87355184  .00000970  00000+0  86855-4 0  9995
2 56692  43.0047 154.2142 0001624 267.9607  92.1049 15.02534631157869
STARLINK-30067
1 56693U 23067F   26090.86689047  .00000556  00000+0  56200-4 0  9994
2 56693  43.0031 154.1652 0001815 276.6566  83.4070 15.02538342158996
STARLINK-30121
1 56695U 23067H   26090.86355776  .00000678  00000+0  65284-4 0  9992
2 56695  43.0028 154.1165 0001391 274.5527  85.5156 15.02533449158997
STARLINK-30127
1 56699U 23067M   26090.86022679  .00002736  00000+0  21757-3 0  9992
2 56699  43.0028 154.1145 0001629 278.4520  81.6138 15.02526469158990
STARLINK-6130
1 57104U 23090D   26088.92689249 -.00000380  00000+0 -13039-4 0  9996
2 57104  43.0048 165.0226 0000198  89.1349 270.9516 15.02546945153451
STARLINK-6097
1 57105U 23090E   26090.83335647 -.00025599  00000+0 -18854-2 0  9997
2 57105  43.0024 154.6263 0001628 270.9419 351.3088 15.02563378  5417
STARLINK-6139
1 57109U 23090J   26090.17332185  .00001771  00000+0  14614-3 0  9997
2 57109  43.0021 158.0379 0001575 267.5158  92.5504 15.02538771153642
STARLINK-6150
1 57119U 23090U   26090.54887705  .00000582  00000+0  58180-4 0  9998
2 57119  43.0017 155.6906 0001213 280.8090  79.2616 15.02536679153707
STARLINK-6147
1 57120U 23090V   26090.55552427  .00001736  00000+0  14350-3 0  9993
2 57120  43.0002 155.7397 0001048 270.8697  89.2025 15.02548171153701
STARLINK-6149
1 57122U 23090X   26090.87793898 -.00000097  00000+0  78844-5 0  9999
2 57122  43.0011 153.8609 0001384 278.5145  81.5540 15.02532257153754
STARLINK-6154
1 57123U 23090Y   26090.86903345  .00003499  00000+0  27379-3 0  9992
2 57123  43.0023 153.7934 0001824 256.5275 103.5364 15.02562063153563
STARLINK-6167
1 57126U 23090AB  26090.87460851  .00000344  00000+0  40564-4 0  9994
2 57126  43.0022 153.8334 0001219 271.8151  88.2552 15.02535782153758
STARLINK-6165
1 57127U 23090AC  26090.86461950  .00000502  00000+0  52236-4 0  9990
2 57127  43.0038 153.7597 0001572 269.4175  90.6487 15.02537616153568
STARLINK-6163
1 57128U 23090AD  26090.53888841  .00000405  00000+0  45064-4 0  9990
2 57128  43.0027 155.6157 0001111 268.5058  91.5657 15.02536298153518
STARLINK-6128
1 57132U 23090AH  26090.85906973 -.00000391  00000+0 -13880-4 0  9994
2 57132  43.0019 153.7149 0000711 267.9750  92.1011 15.02539710153569
STARLINK-30310
1 57733U 23131B   26090.59316247  .00000648  00000+0  63007-4 0  9996
2 57733  43.0038  52.3710 0001198 268.7381  91.3324 15.02540935143236
STARLINK-30371
1 57735U 23131D   26090.27409627 -.00000139  00000+0  47450-5 0  9999
2 57735  43.0025  54.2805 0001208 262.7682  97.3023 15.02535066143174
STARLINK-30352
1 57736U 23131E   26090.59649948  .00001100  00000+0  96478-4 0  9998
2 57736  43.0041  52.3989 0000973 268.9648  91.1082 15.02528851143220
STARLINK-30357
1 57750U 23131U   26090.59982798  .00000308  00000+0  37896-4 0  9995
2 57750  43.0043  52.4216 0000986 272.8952  87.1777 15.02535689143221
STARLINK-30343
1 57753U 23131X   26090.27076538 -.00000344  00000+0 -10397-4 0  9998
2 57753  43.0042  54.2530 0001366 281.0518  79.0170 15.02537338143179
STARLINK-30897
1 58360U 23177K   26090.44312940 -.00000615  00000+0 -30469-4 0  9995
2 58360  43.0039 233.7618 0001335 269.7022  90.3667 15.02527030131486
